{
"type": "FeatureCollection",
"name": "BiosferaTen",
"features": [
{ "type": "Feature", "properties": { "OBJECTID": 2902, "CCAA_N_MAB": "Canarias", "MAB_NAME": "Macizo de Anaga", "MAB_SUPOFI": 52012.0796032, "SHAPE_Leng": 1.13770772936, "SHAPE_Area": 0.046062069062599999 }, "geometry": { "type": "Polygon", "coordinates": [ [ [ -16.1296673, 28.6652316 ], [ -16.132831, 28.6695117 ], [ -16.1335062, 28.6697876 ], [ -16.1347914, 28.6698041 ], [ -16.1358395, 28.6694392 ], [ -16.1371058, 28.6686589 ], [ -16.1416004, 28.6641088 ], [ -16.1431762, 28.6626875 ], [ -16.1450851, 28.6614059 ], [ -16.1476078, 28.6609629 ], [ -16.1492247, 28.6614045 ], [ -16.1503903, 28.6619318 ], [ -16.1515995, 28.662796 ], [ -16.1525988, 28.6631878 ], [ -16.1540689, 28.6631928 ], [ -16.1553474, 28.6626622 ], [ -16.1602175, 28.6555603 ], [ -16.1622271, 28.6538587 ], [ -16.1654218, 28.6523158 ], [ -16.1682928, 28.6515406 ], [ -16.1759953, 28.6502223 ], [ -16.1774356, 28.6497633 ], [ -16.1787733, 28.6490502 ], [ -16.1801802, 28.647945 ], [ -16.1833164, 28.6446485 ], [ -16.1863854, 28.6422803 ], [ -16.1897309, 28.6390092 ], [ -16.1909906, 28.6380025 ], [ -16.1938574, 28.6364796 ], [ -16.1956172, 28.6360908 ], [ -16.1993333, 28.6368911 ], [ -16.2008514, 28.6377539 ], [ -16.2025447, 28.6393286 ], [ -16.2036774, 28.6401842 ], [ -16.2053139, 28.64075 ], [ -16.2062356, 28.6408222 ], [ -16.2070394, 28.6404996 ], [ -16.2080188, 28.6396722 ], [ -16.2116491, 28.6353849 ], [ -16.2130791, 28.6328585 ], [ -16.2141556, 28.6313834 ], [ -16.2150834, 28.6304369 ], [ -16.2165184, 28.6294938 ], [ -16.225961, 28.6293373 ], [ -16.2293225, 28.6285088 ], [ -16.2331958, 28.6270356 ], [ -16.2397622, 28.6250248 ], [ -16.2451802, 28.6244494 ], [ -16.2463275, 28.6244426 ], [ -16.2488277, 28.6248854 ], [ -16.2511444, 28.6262334 ], [ -16.253307, 28.6290958 ], [ -16.2556666, 28.631072 ], [ -16.2599185, 28.635982 ], [ -16.2624078, 28.6383547 ], [ -16.2645758, 28.6411387 ], [ -16.265645, 28.6422592 ], [ -16.2668778, 28.6429639 ], [ -16.2675804, 28.6431758 ], [ -16.2685994, 28.6431785 ], [ -16.2702698, 28.6424931 ], [ -16.2755868, 28.639332 ], [ -16.2781196, 28.6382287 ], [ -16.2811112, 28.6374078 ], [ -16.2848404, 28.6371317 ], [ -16.2875131, 28.6373285 ], [ -16.2898202, 28.6377026 ], [ -16.2926353, 28.6384982 ], [ -16.2959219, 28.6398972 ], [ -16.2973724, 28.640301 ], [ -16.2989413, 28.6402888 ], [ -16.3011068, 28.6397707 ], [ -16.3060357, 28.6378639 ], [ -16.3078639, 28.6368201 ], [ -16.3170746, 28.6347252 ], [ -16.3266771, 28.632744 ], [ -16.3352036, 28.6303009 ], [ -16.3421135, 28.6269296 ], [ -16.3532705, 28.6211561 ], [ -16.3601803, 28.6182136 ], [ -16.3615891, 28.6177835 ], [ -16.3609037, 28.5563495 ], [ -16.3607109, 28.5486365 ], [ -16.3607712, 28.5483584 ], [ -16.3611262, 28.5479571 ], [ -16.3609942, 28.5474433 ], [ -16.361336, 28.5469114 ], [ -16.3605776, 28.5464331 ], [ -16.3607097, 28.5459358 ], [ -16.3605424, 28.5453127 ], [ -16.3611538, 28.5448771 ], [ -16.3611376, 28.544684 ], [ -16.360365, 28.5435087 ], [ -16.3596129, 28.5432066 ], [ -16.3594988, 28.5421784 ], [ -16.3590681, 28.5410287 ], [ -16.358589, 28.5405405 ], [ -16.3585266, 28.5398244 ], [ -16.3586496, 28.5395367 ], [ -16.3592234, 28.5393211 ], [ -16.3593647, 28.5390187 ], [ -16.358947, 28.5381995 ], [ -16.359028, 28.5372434 ], [ -16.3588778, 28.5369868 ], [ -16.3589052, 28.5367595 ], [ -16.3593745, 28.5361625 ], [ -16.3594141, 28.5357906 ], [ -16.3589336, 28.5356057 ], [ -16.358473, 28.5352121 ], [ -16.3586097, 28.5348745 ], [ -16.3585017, 28.5345105 ], [ -16.3577069, 28.5343056 ], [ -16.3573721, 28.5340672 ], [ -16.3571076, 28.5332318 ], [ -16.3567961, 28.5331132 ], [ -16.3558701, 28.5334266 ], [ -16.3555598, 28.5333993 ], [ -16.3555663, 28.5325628 ], [ -16.3552122, 28.5318059 ], [ -16.3544529, 28.5320669 ], [ -16.3542845, 28.5319824 ], [ -16.3539443, 28.5309668 ], [ -16.3528747, 28.5306164 ], [ -16.3529952, 28.5306098 ], [ -16.3528771, 28.5305909 ], [ -16.353135, 28.5301305 ], [ -16.3523992, 28.5297132 ], [ -16.3522979, 28.5289294 ], [ -16.3515831, 28.5282377 ], [ -16.3504656, 28.5274748 ], [ -16.3498119, 28.5272824 ], [ -16.3495099, 28.5269844 ], [ -16.3486968, 28.5267022 ], [ -16.3468574, 28.52564 ], [ -16.346228, 28.525442 ], [ -16.3448914, 28.5256326 ], [ -16.3443523, 28.5253584 ], [ -16.3438341, 28.5252883 ], [ -16.3430189, 28.5259008 ], [ -16.3419933, 28.5263522 ], [ -16.3414963, 28.5261341 ], [ -16.3402451, 28.5261283 ], [ -16.3390691, 28.5257524 ], [ -16.3381324, 28.525979 ], [ -16.3378847, 28.5259215 ], [ -16.3376077, 28.5256817 ], [ -16.3377492, 28.5230231 ], [ -16.3381143, 28.5215912 ], [ -16.3361456, 28.5206983 ], [ -16.3355407, 28.5200547 ], [ -16.3356141, 28.5195887 ], [ -16.3352849, 28.5191397 ], [ -16.3337587, 28.5193168 ], [ -16.331831, 28.5190781 ], [ -16.3317782, 28.5201571 ], [ -16.3310102, 28.5225721 ], [ -16.3304799, 28.5224289 ], [ -16.3298445, 28.5225906 ], [ -16.3296294, 28.5224537 ], [ -16.3295679, 28.5220013 ], [ -16.3290526, 28.5219087 ], [ -16.3288481, 28.5214829 ], [ -16.3283384, 28.521268 ], [ -16.3280077, 28.5208835 ], [ -16.3278411, 28.5205893 ], [ -16.3279084, 28.5203972 ], [ -16.326536, 28.5193906 ], [ -16.3256544, 28.5191194 ], [ -16.3249184, 28.5196263 ], [ -16.3244928, 28.5196184 ], [ -16.3238644, 28.5193207 ], [ -16.3236845, 28.5186908 ], [ -16.3233988, 28.5186456 ], [ -16.3230815, 28.518972 ], [ -16.322317, 28.5186574 ], [ -16.3217245, 28.5186661 ], [ -16.3210299, 28.5181279 ], [ -16.3197796, 28.5176235 ], [ -16.3193851, 28.5175239 ], [ -16.3189626, 28.5176914 ], [ -16.3185151, 28.5167152 ], [ -16.3177382, 28.516747 ], [ -16.3165576, 28.5161677 ], [ -16.3159611, 28.5161468 ], [ -16.3156748, 28.5158788 ], [ -16.3151406, 28.5159717 ], [ -16.3149836, 28.5158265 ], [ -16.3149594, 28.5153698 ], [ -16.3141262, 28.5151943 ], [ -16.3138418, 28.514882 ], [ -16.3121463, 28.5146606 ], [ -16.3118296, 28.5143374 ], [ -16.3112063, 28.5146037 ], [ -16.3103577, 28.5143986 ], [ -16.3101298, 28.5150052 ], [ -16.3085157, 28.5149892 ], [ -16.3080789, 28.5154017 ], [ -16.3074662, 28.5155601 ], [ -16.3072926, 28.5158544 ], [ -16.3065995, 28.5158807 ], [ -16.3064261, 28.5160566 ], [ -16.3063748, 28.516507 ], [ -16.3058989, 28.5165994 ], [ -16.3056731, 28.5168234 ], [ -16.3049452, 28.5170761 ], [ -16.3023938, 28.5186689 ], [ -16.3009054, 28.5190405 ], [ -16.3003168, 28.5193299 ], [ -16.3001118, 28.519276 ], [ -16.299913, 28.5203056 ], [ -16.2994601, 28.5208064 ], [ -16.2988472, 28.5221998 ], [ -16.2973771, 28.5235895 ], [ -16.2969838, 28.5236159 ], [ -16.2962042, 28.5230352 ], [ -16.2958753, 28.5224662 ], [ -16.2957627, 28.5218718 ], [ -16.2947589, 28.5224955 ], [ -16.2946792, 28.5228684 ], [ -16.2951312, 28.5236457 ], [ -16.2951588, 28.5241851 ], [ -16.2946172, 28.5246927 ], [ -16.2941736, 28.5246039 ], [ -16.293945, 28.5248666 ], [ -16.2943279, 28.5251607 ], [ -16.2947697, 28.5251007 ], [ -16.2951965, 28.5255433 ], [ -16.2946308, 28.5258092 ], [ -16.2935769, 28.525782 ], [ -16.2929929, 28.5262714 ], [ -16.2923771, 28.5263703 ], [ -16.2920881, 28.5263731 ], [ -16.2917183, 28.5254275 ], [ -16.2910074, 28.5258809 ], [ -16.2908384, 28.5258453 ], [ -16.2904735, 28.5252905 ], [ -16.2911572, 28.5243349 ], [ -16.2922437, 28.5235802 ], [ -16.2916517, 28.5234183 ], [ -16.2913089, 28.5229563 ], [ -16.2910683, 28.5222328 ], [ -16.2892331, 28.5220642 ], [ -16.2890186, 28.5217498 ], [ -16.2882996, 28.5215333 ], [ -16.2877317, 28.5216132 ], [ -16.287315, 28.5220079 ], [ -16.2876161, 28.5225075 ], [ -16.2881886, 28.5227998 ], [ -16.2882194, 28.5235998 ], [ -16.2880826, 28.5237991 ], [ -16.2876486, 28.5238225 ], [ -16.2867161, 28.5241921 ], [ -16.2850082, 28.5240173 ], [ -16.2845732, 28.5238092 ], [ -16.2839275, 28.5240487 ], [ -16.2824859, 28.5240411 ], [ -16.2846938, 28.5198826 ], [ -16.2843725, 28.519143 ], [ -16.2845117, 28.5187386 ], [ -16.2844374, 28.5185483 ], [ -16.2856447, 28.5170728 ], [ -16.2857842, 28.5166895 ], [ -16.2854854, 28.5158224 ], [ -16.2855218, 28.5148672 ], [ -16.2859656, 28.5138233 ], [ -16.2860021, 28.5128682 ], [ -16.285716, 28.5124347 ], [ -16.2857728, 28.5122445 ], [ -16.2863219, 28.5119954 ], [ -16.2873446, 28.5106375 ], [ -16.2877808, 28.5104469 ], [ -16.2891666, 28.5109071 ], [ -16.2896858, 28.5108734 ], [ -16.2905261, 28.5105356 ], [ -16.2907162, 28.5101465 ], [ -16.2914788, 28.5100962 ], [ -16.2927735, 28.5097397 ], [ -16.2933699, 28.5093754 ], [ -16.2937751, 28.5088498 ], [ -16.2944857, 28.5091716 ], [ -16.2949322, 28.5091783 ], [ -16.2955234, 28.5088551 ], [ -16.2959709, 28.5089494 ], [ -16.296347, 28.5088598 ], [ -16.2967336, 28.5084602 ], [ -16.2967802, 28.5082188 ], [ -16.297342, 28.5078645 ], [ -16.2974393, 28.5074728 ], [ -16.2971591, 28.5067586 ], [ -16.2973899, 28.5063621 ], [ -16.2972095, 28.5061529 ], [ -16.2976846, 28.505285 ], [ -16.2974956, 28.5049867 ], [ -16.2964212, 28.5047041 ], [ -16.2965117, 28.504153 ], [ -16.2960448, 28.5037432 ], [ -16.2961504, 28.5032229 ], [ -16.2960659, 28.5026117 ], [ -16.2965324, 28.5024156 ], [ -16.2967514, 28.5020116 ], [ -16.2968822, 28.5009665 ], [ -16.2967574, 28.5006366 ], [ -16.2968201, 28.5000707 ], [ -16.2965637, 28.4995815 ], [ -16.2962696, 28.4994246 ], [ -16.2954712, 28.5001204 ], [ -16.2945922, 28.5004876 ], [ -16.2936429, 28.5006727 ], [ -16.2938949, 28.5002975 ], [ -16.2937914, 28.4999548 ], [ -16.2941131, 28.4991914 ], [ -16.2939526, 28.4989224 ], [ -16.2941657, 28.4987523 ], [ -16.2943006, 28.4982758 ], [ -16.2951379, 28.4976809 ], [ -16.2945001, 28.4969944 ], [ -16.2940993, 28.4968747 ], [ -16.2942378, 28.4961748 ], [ -16.2938469, 28.4956901 ], [ -16.2933264, 28.4954664 ], [ -16.2919407, 28.495369 ], [ -16.2912723, 28.4947167 ], [ -16.290887, 28.4947166 ], [ -16.2901606, 28.4943134 ], [ -16.2901262, 28.4938653 ], [ -16.2904058, 28.4937342 ], [ -16.2905674, 28.4934248 ], [ -16.2902313, 28.4929787 ], [ -16.2902181, 28.4924739 ], [ -16.2900037, 28.4921831 ], [ -16.2895677, 28.4919525 ], [ -16.289618, 28.4900741 ], [ -16.2898558, 28.4896876 ], [ -16.2897083, 28.4893831 ], [ -16.289974, 28.4887824 ], [ -16.2895931, 28.4884106 ], [ -16.2895131, 28.4877608 ], [ -16.2888897, 28.4877052 ], [ -16.2884616, 28.4870452 ], [ -16.2880744, 28.4869103 ], [ -16.2878715, 28.486562 ], [ -16.2868552, 28.4867485 ], [ -16.286503, 28.4868821 ], [ -16.286541, 28.487591 ], [ -16.2874075, 28.4889344 ], [ -16.2874641, 28.4900885 ], [ -16.2872763, 28.4901439 ], [ -16.2866653, 28.4898812 ], [ -16.284459, 28.4883824 ], [ -16.2839933, 28.4890741 ], [ -16.2832772, 28.4896716 ], [ -16.2830743, 28.4904897 ], [ -16.2833653, 28.4909273 ], [ -16.2838161, 28.4912409 ], [ -16.2842156, 28.4918752 ], [ -16.2846626, 28.493149 ], [ -16.2840845, 28.4941474 ], [ -16.282353, 28.4948411 ], [ -16.2815208, 28.4943019 ], [ -16.2811958, 28.4942528 ], [ -16.280283, 28.4943656 ], [ -16.2798743, 28.4947081 ], [ -16.279283, 28.4945835 ], [ -16.2788648, 28.4941445 ], [ -16.2777651, 28.4935614 ], [ -16.2763154, 28.493743 ], [ -16.2756193, 28.4940626 ], [ -16.2751257, 28.4946486 ], [ -16.2751326, 28.4952217 ], [ -16.2754061, 28.4958964 ], [ -16.2750893, 28.4967092 ], [ -16.27524, 28.4970618 ], [ -16.2751687, 28.4974545 ], [ -16.2746479, 28.4979229 ], [ -16.2729186, 28.4980655 ], [ -16.2725054, 28.4978689 ], [ -16.2720016, 28.497257 ], [ -16.2716984, 28.4959958 ], [ -16.2717702, 28.4928448 ], [ -16.271862, 28.4926403 ], [ -16.2724337, 28.4922741 ], [ -16.2725952, 28.491657 ], [ -16.2738966, 28.4902338 ], [ -16.2745054, 28.4890344 ], [ -16.2749089, 28.4864492 ], [ -16.2744639, 28.4845365 ], [ -16.2753291, 28.4835873 ], [ -16.2753305, 28.4830062 ], [ -16.2762349, 28.4817911 ], [ -16.2766854, 28.4813995 ], [ -16.2777813, 28.4808493 ], [ -16.2780922, 28.4800752 ], [ -16.2778968, 28.4798978 ], [ -16.277744, 28.4792186 ], [ -16.2783792, 28.4783813 ], [ -16.278174, 28.4780573 ], [ -16.2778585, 28.4778868 ], [ -16.2780986, 28.4775684 ], [ -16.2780543, 28.4774124 ], [ -16.2777689, 28.4773423 ], [ -16.2776134, 28.476957 ], [ -16.2771165, 28.4766645 ], [ -16.2767849, 28.4759995 ], [ -16.2761042, 28.4752346 ], [ -16.275451, 28.4751529 ], [ -16.2751189, 28.4749326 ], [ -16.2748013, 28.4749698 ], [ -16.2746087, 28.4750731 ], [ -16.2743313, 28.4755907 ], [ -16.2734132, 28.4758458 ], [ -16.2730831, 28.4763439 ], [ -16.2724471, 28.4759625 ], [ -16.2715382, 28.4760367 ], [ -16.2708981, 28.4755418 ], [ -16.270915, 28.474663 ], [ -16.2706088, 28.474238 ], [ -16.270859, 28.4734643 ], [ -16.2707274, 28.4732461 ], [ -16.2703457, 28.4730751 ], [ -16.2700606, 28.4732354 ], [ -16.2689558, 28.4749698 ], [ -16.2679094, 28.4750861 ], [ -16.2671607, 28.4747456 ], [ -16.2665809, 28.4747058 ], [ -16.2659523, 28.4753457 ], [ -16.264989, 28.4758985 ], [ -16.2641563, 28.4756473 ], [ -16.2633634, 28.4750037 ], [ -16.2627682, 28.4748699 ], [ -16.2620117, 28.474418 ], [ -16.2608585, 28.4741419 ], [ -16.2598414, 28.4743972 ], [ -16.2596389, 28.4745302 ], [ -16.2594137, 28.4750895 ], [ -16.2602269, 28.4771879 ], [ -16.2600679, 28.4782944 ], [ -16.260474, 28.4790393 ], [ -16.2614621, 28.4796283 ], [ -16.2618169, 28.4801444 ], [ -16.2618481, 28.4809423 ], [ -16.2621014, 28.4819643 ], [ -16.2617567, 28.482559 ], [ -16.2608195, 28.4828511 ], [ -16.2601624, 28.4828748 ], [ -16.2595918, 28.4834614 ], [ -16.2584097, 28.4842121 ], [ -16.257703, 28.4842908 ], [ -16.2570794, 28.4842966 ], [ -16.2566474, 28.4840251 ], [ -16.2560225, 28.4839275 ], [ -16.2553563, 28.4836237 ], [ -16.2555024, 28.4827958 ], [ -16.2548686, 28.4819406 ], [ -16.2548962, 28.480976 ], [ -16.254593, 28.4805468 ], [ -16.2548868, 28.480184 ], [ -16.2551118, 28.4795232 ], [ -16.2551315, 28.4791206 ], [ -16.254837, 28.4790539 ], [ -16.2547917, 28.4785705 ], [ -16.2549595, 28.4776018 ], [ -16.2545864, 28.4774876 ], [ -16.2544055, 28.4772098 ], [ -16.2540374, 28.4770465 ], [ -16.25282, 28.4773323 ], [ -16.2516773, 28.4769015 ], [ -16.2513992, 28.4765818 ], [ -16.2511028, 28.4766512 ], [ -16.2501991, 28.4773568 ], [ -16.2499755, 28.4777308 ], [ -16.2498803, 28.4785839 ], [ -16.2500398, 28.4802095 ], [ -16.2496279, 28.4809726 ], [ -16.2489944, 28.4812876 ], [ -16.2477113, 28.4799056 ], [ -16.2477203, 28.4806632 ], [ -16.248004, 28.4815905 ], [ -16.2474323, 28.4826979 ], [ -16.2482224, 28.4835861 ], [ -16.2487921, 28.4850301 ], [ -16.2485316, 28.4853368 ], [ -16.2477282, 28.4855564 ], [ -16.2473535, 28.4853079 ], [ -16.2462158, 28.4836156 ], [ -16.245212, 28.4827441 ], [ -16.2446376, 28.4819352 ], [ -16.2433862, 28.480624 ], [ -16.2427454, 28.4787255 ], [ -16.2416117, 28.4778494 ], [ -16.2410165, 28.4778238 ], [ -16.2408716, 28.478018 ], [ -16.2388592, 28.4754557 ], [ -16.235833, 28.4792085 ], [ -16.2356585, 28.4791145 ], [ -16.2386842, 28.4752329 ], [ -16.2169961, 28.4476086 ], [ -16.211563, 28.450714 ], [ -16.2095722, 28.4516613 ], [ -16.2011131, 28.4549223 ], [ -16.1916686, 28.4578485 ], [ -16.1848637, 28.4602816 ], [ -16.1816003, 28.4616368 ], [ -16.1775369, 28.4636125 ], [ -16.176387, 28.4639925 ], [ -16.1727223, 28.4641686 ], [ -16.1683357, 28.4627622 ], [ -16.167179, 28.4625195 ], [ -16.1660652, 28.4624749 ], [ -16.1639234, 28.4627459 ], [ -16.1595942, 28.4638028 ], [ -16.1576612, 28.4644962 ], [ -16.152899, 28.4670458 ], [ -16.1464501, 28.4695192 ], [ -16.1374014, 28.4714905 ], [ -16.1357051, 28.4714235 ], [ -16.134453, 28.4699086 ], [ -16.1329676, 28.46854 ], [ -16.1316347, 28.4661503 ], [ -16.1301917, 28.4658825 ], [ -16.1292049, 28.4662517 ], [ -16.1272347, 28.467315 ], [ -16.1255945, 28.4686825 ], [ -16.1242433, 28.4703002 ], [ -16.1237419, 28.4711799 ], [ -16.1230863, 28.4729363 ], [ -16.1215986, 28.4742392 ], [ -16.1199558, 28.475381 ], [ -16.1170902, 28.4767945 ], [ -16.1094809, 28.4788244 ], [ -16.1085044, 28.4792295 ], [ -16.1070165, 28.4805414 ], [ -16.1052777, 28.4852015 ], [ -16.104848, 28.4871004 ], [ -16.1020358, 28.4927372 ], [ -16.1016051, 28.4945459 ], [ -16.1013919, 28.4986092 ], [ -16.1001648, 28.5003694 ], [ -16.0949409, 28.5054677 ], [ -16.0944766, 28.5064252 ], [ -16.0935335, 28.5077137 ], [ -16.0916796, 28.5092206 ], [ -16.0905237, 28.5098245 ], [ -16.0851014, 28.5134337 ], [ -16.0840515, 28.5144165 ], [ -16.0832206, 28.5157331 ], [ -16.083195, 28.5180596 ], [ -16.08342, 28.5207003 ], [ -16.0831041, 28.521694 ], [ -16.0822694, 28.5228639 ], [ -16.0781806, 28.5261849 ], [ -16.0767231, 28.5275861 ], [ -16.0737602, 28.5308888 ], [ -16.0727251, 28.5332856 ], [ -16.0721347, 28.5350549 ], [ -16.0713859, 28.536126 ], [ -16.0706568, 28.5368762 ], [ -16.0697487, 28.5373877 ], [ -16.0656923, 28.5386831 ], [ -16.062199, 28.5408329 ], [ -16.0594612, 28.5431561 ], [ -16.059065, 28.5439591 ], [ -16.0591063, 28.5454813 ], [ -16.060332, 28.5470599 ], [ -16.0632089, 28.54989 ], [ -16.0630707, 28.5512886 ], [ -16.0624725, 28.5519481 ], [ -16.0609115, 28.5531982 ], [ -16.0596191, 28.554802 ], [ -16.0581687, 28.558074 ], [ -16.0576189, 28.5589278 ], [ -16.0561581, 28.5599682 ], [ -16.0540332, 28.5605022 ], [ -16.0515495, 28.5615769 ], [ -16.0497646, 28.5629408 ], [ -16.0490975, 28.5638238 ], [ -16.0489554, 28.5646656 ], [ -16.0493798, 28.5653372 ], [ -16.0518726, 28.5667449 ], [ -16.0528362, 28.5676547 ], [ -16.0533008, 28.5708672 ], [ -16.0530606, 28.5715519 ], [ -16.0525409, 28.5722314 ], [ -16.0507881, 28.5734686 ], [ -16.0494016, 28.5752921 ], [ -16.0488548, 28.5768256 ], [ -16.0483984, 28.5799243 ], [ -16.0487337, 28.581202 ], [ -16.0492506, 28.5822664 ], [ -16.0500025, 28.5831971 ], [ -16.0519652, 28.5844044 ], [ -16.0540965, 28.5852418 ], [ -16.0594662, 28.5864136 ], [ -16.0604285, 28.5868059 ], [ -16.0611824, 28.5873957 ], [ -16.0614509, 28.5885898 ], [ -16.0595692, 28.5915548 ], [ -16.0586562, 28.593731 ], [ -16.0585558, 28.597286 ], [ -16.0589693, 28.5991507 ], [ -16.0599539, 28.6012832 ], [ -16.0617536, 28.6043624 ], [ -16.0621954, 28.606029 ], [ -16.0621855, 28.6078641 ], [ -16.0595414, 28.6109131 ], [ -16.0585186, 28.6125101 ], [ -16.0577692, 28.6143938 ], [ -16.0577918, 28.6152064 ], [ -16.0584427, 28.6157124 ], [ -16.0619323, 28.6164205 ], [ -16.0633002, 28.6168819 ], [ -16.0646126, 28.6175928 ], [ -16.0659509, 28.6185338 ], [ -16.0674057, 28.6204462 ], [ -16.0678877, 28.6213399 ], [ -16.0687482, 28.6222987 ], [ -16.069791, 28.6228658 ], [ -16.0723899, 28.6232845 ], [ -16.073961, 28.6236991 ], [ -16.0748505, 28.6242893 ], [ -16.0754511, 28.6249418 ], [ -16.0759317, 28.6261288 ], [ -16.0761512, 28.6281115 ], [ -16.0757006, 28.6298061 ], [ -16.0743024, 28.6316554 ], [ -16.072133, 28.6352456 ], [ -16.0704025, 28.6402328 ], [ -16.0695122, 28.6448904 ], [ -16.06928, 28.647876 ], [ -16.0692903, 28.6510391 ], [ -16.0695538, 28.6515296 ], [ -16.0701333, 28.6519482 ], [ -16.0707501, 28.6521289 ], [ -16.0745872, 28.6521484 ], [ -16.07724, 28.6518895 ], [ -16.0815196, 28.6517876 ], [ -16.0831599, 28.6520041 ], [ -16.0840547, 28.6524675 ], [ -16.0849522, 28.6533192 ], [ -16.0854332, 28.6544863 ], [ -16.086097, 28.6569384 ], [ -16.0866766, 28.6582368 ], [ -16.0874423, 28.6592981 ], [ -16.0881061, 28.6599785 ], [ -16.0895311, 28.6608758 ], [ -16.0912422, 28.661362 ], [ -16.0919909, 28.6613451 ], [ -16.0945345, 28.6604196 ], [ -16.0985513, 28.65881 ], [ -16.106244, 28.6552285 ], [ -16.1087324, 28.6544649 ], [ -16.1101275, 28.6541135 ], [ -16.1121488, 28.6538475 ], [ -16.115089, 28.6538109 ], [ -16.1169636, 28.6540557 ], [ -16.1182467, 28.6544686 ], [ -16.1202886, 28.6555582 ], [ -16.1249749, 28.6591108 ], [ -16.1266534, 28.6607776 ], [ -16.1296673, 28.6652316 ] ] ] } }
]
}
